[{"OBJECT_NAME":"STARLINK-34786","OBJECT_ID":"2025-191N","EPOCH":"2026-03-09T15:09:22.933152","MEAN_MOTION":15.05647063,"ECCENTRICITY":0.000308,"INCLINATION":97.6017,"RA_OF_ASC_NODE":301.5159,"ARG_OF_PERICENTER":76.0667,"MEAN_ANOMALY":284.0902,"EPHEMERIS_TYPE":0,"CLASSIFICATION_TYPE":"U","NORAD_CAT_ID":65391,"ELEMENT_SET_NO":999,"REV_AT_EPOCH":3026,"BSTAR":0.00047339,"MEAN_MOTION_DOT":6.776e-5,"MEAN_MOTION_DDOT":0},{"OBJECT_NAME":"COSMOS 2251 DEB","OBJECT_ID":"1993-036AXJ","EPOCH":"2026-03-07T16:14:39.475392","MEAN_MOTION":15.02350149,"ECCENTRICITY":0.00052276,"INCLINATION":74.0329,"RA_OF_ASC_NODE":161.7612,"ARG_OF_PERICENTER":248.7206,"MEAN_ANOMALY":111.3424,"EPHEMERIS_TYPE":0,"CLASSIFICATION_TYPE":"U","NORAD_CAT_ID":36047,"ELEMENT_SET_NO":999,"REV_AT_EPOCH":67212,"BSTAR":0.0041103158,"MEAN_MOTION_DOT":0.00054783,"MEAN_MOTION_DDOT":0}]
